<?xml version="1.0" encoding="UTF-8"?>
<kml xmlns="http://www.opengis.net/kml/2.2">
  <Document>
    <name>11 NM Launch Radius</name>
    <description>11 nautical mile (20.372 km) radius around the configured launch position at 40.870683, -119.10695.</description>
    <Style id="radiusStyle">
      <LineStyle>
        <color>ff0000ff</color>
        <width>3</width>
      </LineStyle>
      <PolyStyle>
        <color>280000ff</color>
      </PolyStyle>
    </Style>
    <Style id="launchStyle">
      <IconStyle>
        <scale>1.2</scale>
        <Icon>
          <href>https://maps.google.com/mapfiles/kml/shapes/star.png</href>
        </Icon>
      </IconStyle>
    </Style>
    <Placemark>
      <name>Launch Position</name>
      <description>Latitude 40.870683, longitude -119.10695</description>
      <styleUrl>#launchStyle</styleUrl>
      <Point>
        <coordinates>-119.10695,40.870683,0</coordinates>
      </Point>
    </Placemark>
    <Placemark>
      <name>11 NM Radius</name>
      <description>Radius: 11 nautical miles / 20.372 kilometers / 12.658 statute miles.</description>
      <styleUrl>#radiusStyle</styleUrl>
      <Polygon>
        <tessellate>1</tessellate>
        <altitudeMode>clampToGround</altitudeMode>
        <outerBoundaryIs>
          <LinearRing>
            <coordinates>
              -119.10695000,41.05368779,0
              -119.09636443,41.05351313,0
              -119.08579917,41.05298947,0
              -119.07527452,41.05211783,0
              -119.06481065,41.05089988,0
              -119.05442766,41.04933795,0
              -119.04414547,41.04743505,0
              -119.03398379,41.04519481,0
              -119.02396211,41.04262155,0
              -119.01409964,41.03972021,0
              -119.00441527,41.03649633,0
              -118.99492757,41.03295612,0
              -118.98565467,41.02910635,0
              -118.97661434,41.02495442,0
              -118.96782385,41.02050827,0
              -118.95930000,41.01577644,0
              -118.95105907,41.01076799,0
              -118.94311677,41.00549251,0
              -118.93548825,40.99996012,0
              -118.92818804,40.99418140,0
              -118.92123002,40.98816742,0
              -118.91462741,40.98192969,0
              -118.90839275,40.97548014,0
              -118.90253785,40.96883112,0
              -118.89707379,40.96199534,0
              -118.89201090,40.95498586,0
              -118.88735871,40.94781608,0
              -118.88312599,40.94049970,0
              -118.87932068,40.93305070,0
              -118.87594989,40.92548329,0
              -118.87301991,40.91781192,0
              -118.87053618,40.91005122,0
              -118.86850327,40.90221600,0
              -118.86692490,40.89432119,0
              -118.86580391,40.88638185,0
              -118.86514228,40.87841309,0
              -118.86494109,40.87043010,0
              -118.86520058,40.86244807,0
              -118.86592006,40.85448219,0
              -118.86709802,40.84654762,0
              -118.86873204,40.83865944,0
              -118.87081886,40.83083267,0
              -118.87335436,40.82308216,0
              -118.87633355,40.81542264,0
              -118.87975063,40.80786866,0
              -118.88359897,40.80043456,0
              -118.88787111,40.79313445,0
              -118.89255882,40.78598218,0
              -118.89765306,40.77899131,0
              -118.90314407,40.77217509,0
              -118.90902130,40.76554645,0
              -118.91527351,40.75911795,0
              -118.92188875,40.75290176,0
              -118.92885439,40.74690965,0
              -118.93615715,40.74115298,0
              -118.94378312,40.73564262,0
              -118.95171780,40.73038902,0
              -118.95994610,40.72540211,0
              -118.96845241,40.72069132,0
              -118.97722057,40.71626556,0
              -118.98623395,40.71213320,0
              -118.99547549,40.70830204,0
              -119.00492768,40.70477933,0
              -119.01457262,40.70157172,0
              -119.02439207,40.69868528,0
              -119.03436745,40.69612545,0
              -119.04447992,40.69389707,0
              -119.05471035,40.69200435,0
              -119.06503943,40.69045087,0
              -119.07544764,40.68923955,0
              -119.08591533,40.68837269,0
              -119.09642273,40.68785191,0
              -119.10695000,40.68767821,0
              -119.11747727,40.68785191,0
              -119.12798467,40.68837269,0
              -119.13845236,40.68923955,0
              -119.14886057,40.69045087,0
              -119.15918965,40.69200435,0
              -119.16942008,40.69389707,0
              -119.17953255,40.69612545,0
              -119.18950793,40.69868528,0
              -119.19932738,40.70157172,0
              -119.20897232,40.70477933,0
              -119.21842451,40.70830204,0
              -119.22766605,40.71213320,0
              -119.23667943,40.71626556,0
              -119.24544759,40.72069132,0
              -119.25395390,40.72540211,0
              -119.26218220,40.73038902,0
              -119.27011688,40.73564262,0
              -119.27774285,40.74115298,0
              -119.28504561,40.74690965,0
              -119.29201125,40.75290176,0
              -119.29862649,40.75911795,0
              -119.30487870,40.76554645,0
              -119.31075593,40.77217509,0
              -119.31624694,40.77899131,0
              -119.32134118,40.78598218,0
              -119.32602889,40.79313445,0
              -119.33030103,40.80043456,0
              -119.33414937,40.80786866,0
              -119.33756645,40.81542264,0
              -119.34054564,40.82308216,0
              -119.34308114,40.83083267,0
              -119.34516796,40.83865944,0
              -119.34680198,40.84654762,0
              -119.34797994,40.85448219,0
              -119.34869942,40.86244807,0
              -119.34895891,40.87043010,0
              -119.34875772,40.87841309,0
              -119.34809609,40.88638185,0
              -119.34697510,40.89432119,0
              -119.34539673,40.90221600,0
              -119.34336382,40.91005122,0
              -119.34088009,40.91781192,0
              -119.33795011,40.92548329,0
              -119.33457932,40.93305070,0
              -119.33077401,40.94049970,0
              -119.32654129,40.94781608,0
              -119.32188910,40.95498586,0
              -119.31682621,40.96199534,0
              -119.31136215,40.96883112,0
              -119.30550725,40.97548014,0
              -119.29927259,40.98192969,0
              -119.29266998,40.98816742,0
              -119.28571196,40.99418140,0
              -119.27841175,40.99996012,0
              -119.27078323,41.00549251,0
              -119.26284093,41.01076799,0
              -119.25460000,41.01577644,0
              -119.24607615,41.02050827,0
              -119.23728566,41.02495442,0
              -119.22824533,41.02910635,0
              -119.21897243,41.03295612,0
              -119.20948473,41.03649633,0
              -119.19980036,41.03972021,0
              -119.18993789,41.04262155,0
              -119.17991621,41.04519481,0
              -119.16975453,41.04743505,0
              -119.15947234,41.04933795,0
              -119.14908935,41.05089988,0
              -119.13862548,41.05211783,0
              -119.12810083,41.05298947,0
              -119.11753557,41.05351313,0
              -119.10695000,41.05368779,0
            </coordinates>
          </LinearRing>
        </outerBoundaryIs>
      </Polygon>
    </Placemark>
+    <Placemark>
      <name>17 NM Radius</name>
      <description>Radius: 17 nautical miles / 31.484 kilometers / 19.558 statute miles.</description>
      <Style>
        <LineStyle>
          <color>ffff5500</color>
          <width>3</width>
        </LineStyle>
        <PolyStyle>
          <color>1855aaff</color>
        </PolyStyle>
      </Style>
      <Polygon>
        <tessellate>1</tessellate>
        <altitudeMode>clampToGround</altitudeMode>
        <outerBoundaryIs>
          <LinearRing>
            <coordinates>
              -119.10695000,41.15350858,0
              -119.09056566,41.15323824,0
              -119.07421290,41.15242773,0
              -119.05792327,41.15107862,0
              -119.04172816,41.14919350,0
              -119.02565879,41.14677602,0
              -119.00974611,41.14383083,0
              -118.99402078,41.14036361,0
              -118.97851307,41.13638104,0
              -118.96325282,41.13189080,0
              -118.94826937,41.12690154,0
              -118.93359151,41.12142286,0
              -118.91924743,41.11546532,0
              -118.90526465,41.10904038,0
              -118.89166997,41.10216042,0
              -118.87848941,41.09483867,0
              -118.86574819,41.08708921,0
              -118.85347064,41.07892694,0
              -118.84168017,41.07036754,0
              -118.83039926,41.06142748,0
              -118.81964934,41.05212390,0
              -118.80945084,41.04247468,0
              -118.79982305,41.03249833,0
              -118.79078420,41.02221399,0
              -118.78235133,41.01164136,0
              -118.77454029,41.00080071,0
              -118.76736574,40.98971281,0
              -118.76084109,40.97839887,0
              -118.75497849,40.96688054,0
              -118.74978879,40.95517985,0
              -118.74528155,40.94331917,0
              -118.74146501,40.93132115,0
              -118.73834609,40.91920869,0
              -118.73593034,40.90700492,0
              -118.73422199,40.89473310,0
              -118.73322390,40.88241663,0
              -118.73293756,40.87007896,0
              -118.73336313,40.85774359,0
              -118.73449940,40.84543400,0
              -118.73634382,40.83317358,0
              -118.73889249,40.82098566,0
              -118.74214017,40.80889337,0
              -118.74608033,40.79691968,0
              -118.75070511,40.78508731,0
              -118.75600538,40.77341870,0
              -118.76197075,40.76193597,0
              -118.76858955,40.75066088,0
              -118.77584895,40.73961478,0
              -118.78373487,40.72881857,0
              -118.79223210,40.71829269,0
              -118.80132429,40.70805702,0
              -118.81099399,40.69813093,0
              -118.82122267,40.68853315,0
              -118.83199078,40.67928183,0
              -118.84327778,40.67039440,0
              -118.85506217,40.66188766,0
              -118.86732153,40.65377763,0
              -118.88003259,40.64607962,0
              -118.89317124,40.63880812,0
              -118.90671259,40.63197684,0
              -118.92063102,40.62559865,0
              -118.93490022,40.61968556,0
              -118.94949323,40.61424869,0
              -118.96438252,40.60929827,0
              -118.97954002,40.60484363,0
              -118.99493716,40.60089315,0
              -119.01054494,40.59745424,0
              -119.02633399,40.59453338,0
              -119.04227459,40.59213607,0
              -119.05833677,40.59026680,0
              -119.07449033,40.58892909,0
              -119.09070490,40.58812546,0
              -119.10695000,40.58785742,0
              -119.12319510,40.58812546,0
              -119.13940967,40.58892909,0
              -119.15556323,40.59026680,0
              -119.17162541,40.59213607,0
              -119.18756601,40.59453338,0
              -119.20335506,40.59745424,0
              -119.21896284,40.60089315,0
              -119.23435998,40.60484363,0
              -119.24951748,40.60929827,0
              -119.26440677,40.61424869,0
              -119.27899978,40.61968556,0
              -119.29326898,40.62559865,0
              -119.30718741,40.63197684,0
              -119.32072876,40.63880812,0
              -119.33386741,40.64607962,0
              -119.34657847,40.65377763,0
              -119.35883783,40.66188766,0
              -119.37062222,40.67039440,0
              -119.38190922,40.67928183,0
              -119.39267733,40.68853315,0
              -119.40290601,40.69813093,0
              -119.41257571,40.70805702,0
              -119.42166790,40.71829269,0
              -119.43016513,40.72881857,0
              -119.43805105,40.73961478,0
              -119.44531045,40.75066088,0
              -119.45192925,40.76193597,0
              -119.45789462,40.77341870,0
              -119.46319489,40.78508731,0
              -119.46781967,40.79691968,0
              -119.47175983,40.80889337,0
              -119.47500751,40.82098566,0
              -119.47755618,40.83317358,0
              -119.47940060,40.84543400,0
              -119.48053687,40.85774359,0
              -119.48096244,40.87007896,0
              -119.48067610,40.88241663,0
              -119.47967801,40.89473310,0
              -119.47796966,40.90700492,0
              -119.47555391,40.91920869,0
              -119.47243499,40.93132115,0
              -119.46861845,40.94331917,0
              -119.46411121,40.95517985,0
              -119.45892151,40.96688054,0
              -119.45305891,40.97839887,0
              -119.44653426,40.98971281,0
              -119.43935971,41.00080071,0
              -119.43154867,41.01164136,0
              -119.42311580,41.02221399,0
              -119.41407695,41.03249833,0
              -119.40444916,41.04247468,0
              -119.39425066,41.05212390,0
              -119.38350074,41.06142748,0
              -119.37221983,41.07036754,0
              -119.36042936,41.07892694,0
              -119.34815181,41.08708921,0
              -119.33541059,41.09483867,0
              -119.32223003,41.10216042,0
              -119.30863535,41.10904038,0
              -119.29465257,41.11546532,0
              -119.28030849,41.12142286,0
              -119.26563063,41.12690154,0
              -119.25064718,41.13189080,0
              -119.23538693,41.13638104,0
              -119.21987922,41.14036361,0
              -119.20415389,41.14383083,0
              -119.18824121,41.14677602,0
              -119.17217184,41.14919350,0
              -119.15597673,41.15107862,0
              -119.13968710,41.15242773,0
              -119.12333434,41.15323824,0
              -119.10695000,41.15350858,0
            </coordinates>
          </LinearRing>
        </outerBoundaryIs>
      </Polygon>
    </Placemark>
  </Document>
</kml>
